{
  "type": "FeatureCollection",
  "features": [
    {
      "type": "Feature",
      "properties": {
        "norad_id": 39766,
        "name": "ALOS-2",
        "group": "resource",
        "lat": -61.84567891553014,
        "lon": 94.86029682601472,
        "alt_km": 639.1574919225268,
        "timestamp": "2025-12-10T21:43:21.743562+00:00",
        "meta_object_name": "ALOS-2",
        "meta_object_id": "2014-029A",
        "meta_epoch": "2025-12-10T12:16:02.876160",
        "meta_mean_motion": 14.79466326,
        "meta_eccentricity": 0.00014764,
        "meta_inclination": 97.9227,
        "meta_ra_of_asc_node": 79.3892,
        "meta_arg_of_pericenter": 98.4859,
        "meta_mean_anomaly": 261.652,
        "meta_ephemeris_type": 0,
        "meta_classification_type": "U",
        "meta_norad_cat_id": 39766,
        "meta_element_set_no": 999,
        "meta_rev_at_epoch": 62368,
        "meta_bstar": 0.00028110593,
        "meta_mean_motion_dot": 2.048e-05,
        "meta_mean_motion_ddot": 0,
        "tle_line1": "1 39766U 14029A   25344.51114440  .00002048  00000+0  28111-3 0  9994",
        "tle_line2": "2 39766  97.9227  79.3892 0001476  98.4859 261.6520 14.79466326623683"
      },
      "geometry": {
        "type": "Point",
        "coordinates": [
          94.86029682601472,
          -61.84567891553014
        ]
      }
    },
    {
      "type": "Feature",
      "properties": {
        "norad_id": 40010,
        "name": "KAZEOSAT 2",
        "group": "resource",
        "lat": 10.081805010581254,
        "lon": 10.665289039368142,
        "alt_km": 610.8800870978175,
        "timestamp": "2025-12-10T21:43:21.743573+00:00",
        "meta_object_name": "KAZEOSAT 2",
        "meta_object_id": "2014-033A",
        "meta_epoch": "2025-12-10T14:29:33.217152",
        "meta_mean_motion": 14.85163279,
        "meta_eccentricity": 0.00075535,
        "meta_inclination": 97.5503,
        "meta_ra_of_asc_node": 189.0284,
        "meta_arg_of_pericenter": 214.3602,
        "meta_mean_anomaly": 145.7126,
        "meta_ephemeris_type": 0,
        "meta_classification_type": "U",
        "meta_norad_cat_id": 40010,
        "meta_element_set_no": 999,
        "meta_rev_at_epoch": 62096,
        "meta_bstar": 0.00018104622,
        "meta_mean_motion_dot": 1.501e-05,
        "meta_mean_motion_ddot": 0,
        "tle_line1": "1 40010U 14033A   25344.60385668  .00001501  00000+0  18105-3 0  9990",
        "tle_line2": "2 40010  97.5503 189.0284 0007553 214.3602 145.7126 14.85163279620961"
      },
      "geometry": {
        "type": "Point",
        "coordinates": [
          10.665289039368142,
          10.081805010581254
        ]
      }
    },
    {
      "type": "Feature",
      "properties": {
        "norad_id": 40011,
        "name": "HODOYOSHI-4",
        "group": "resource",
        "lat": -61.57074668197558,
        "lon": -20.285351975720914,
        "alt_km": 599.838541756586,
        "timestamp": "2025-12-10T21:43:21.743583+00:00",
        "meta_object_name": "HODOYOSHI-4",
        "meta_object_id": "2014-033B",
        "meta_epoch": "2025-12-10T14:10:41.404800",
        "meta_mean_motion": 14.87467732,
        "meta_eccentricity": 0.00231398,
        "meta_inclination": 97.5413,
        "meta_ra_of_asc_node": 173.5806,
        "meta_arg_of_pericenter": 208.1405,
        "meta_mean_anomaly": 151.8563,
        "meta_ephemeris_type": 0,
        "meta_classification_type": "U",
        "meta_norad_cat_id": 40011,
        "meta_element_set_no": 999,
        "meta_rev_at_epoch": 62076,
        "meta_bstar": 0.00031204272,
        "meta_mean_motion_dot": 2.788e-05,
        "meta_mean_motion_ddot": 0,
        "tle_line1": "1 40011U 14033B   25344.59075700  .00002788  00000+0  31204-3 0  9995",
        "tle_line2": "2 40011  97.5413 173.5806 0023139 208.1405 151.8563 14.87467732620764"
      },
      "geometry": {
        "type": "Point",
        "coordinates": [
          -20.285351975720914,
          -61.57074668197558
        ]
      }
    },
    {
      "type": "Feature",
      "properties": {
        "norad_id": 40013,
        "name": "DEIMOS-2",
        "group": "resource",
        "lat": 3.1561663583829334,
        "lon": -139.65636137276425,
        "alt_km": 591.3156491923328,
        "timestamp": "2025-12-10T21:43:21.743594+00:00",
        "meta_object_name": "DEIMOS-2",
        "meta_object_id": "2014-033D",
        "meta_epoch": "2025-12-10T15:16:27.522624",
        "meta_mean_motion": 14.92959532,
        "meta_eccentricity": 9.408e-05,
        "meta_inclination": 97.6065,
        "meta_ra_of_asc_node": 220.5061,
        "meta_arg_of_pericenter": 92.6245,
        "meta_mean_anomaly": 267.5082,
        "meta_ephemeris_type": 0,
        "meta_classification_type": "U",
        "meta_norad_cat_id": 40013,
        "meta_element_set_no": 999,
        "meta_rev_at_epoch": 60958,
        "meta_bstar": 0.00034341264,
        "meta_mean_motion_dot": 3.512e-05,
        "meta_mean_motion_ddot": 0,
        "tle_line1": "1 40013U 14033D   25344.63642966  .00003512  00000+0  34341-3 0  9997",
        "tle_line2": "2 40013  97.6065 220.5061 0000940  92.6245 267.5082 14.92959532609587"
      },
      "geometry": {
        "type": "Point",
        "coordinates": [
          -139.65636137276425,
          3.1561663583829334
        ]
      }
    },
    {
      "type": "Feature",
      "properties": {
        "norad_id": 40015,
        "name": "HODOYOSHI-3",
        "group": "resource",
        "lat": -5.0444945919168465,
        "lon": -29.857268783370923,
        "alt_km": 609.9643743909046,
        "timestamp": "2025-12-10T21:43:21.743605+00:00",
        "meta_object_name": "HODOYOSHI-3",
        "meta_object_id": "2014-033F",
        "meta_epoch": "2025-12-10T11:11:05.438688",
        "meta_mean_motion": 14.84794737,
        "meta_eccentricity": 0.00318405,
        "meta_inclination": 97.62,
        "meta_ra_of_asc_node": 150.4,
        "meta_arg_of_pericenter": 255.7267,
        "meta_mean_anomaly": 104.0411,
        "meta_ephemeris_type": 0,
        "meta_classification_type": "U",
        "meta_norad_cat_id": 40015,
        "meta_element_set_no": 999,
        "meta_rev_at_epoch": 61961,
        "meta_bstar": 0.00033087216,
        "meta_mean_motion_dot": 2.781e-05,
        "meta_mean_motion_ddot": 0,
        "tle_line1": "1 40015U 14033F   25344.46603517  .00002781  00000+0  33087-3 0  9992",
        "tle_line2": "2 40015  97.6200 150.4000 0031840 255.7267 104.0411 14.84794737619614"
      },
      "geometry": {
        "type": "Point",
        "coordinates": [
          -29.857268783370923,
          -5.0444945919168465
        ]
      }
    },
    {
      "type": "Feature",
      "properties": {
        "norad_id": 40053,
        "name": "SPOT 7",
        "group": "resource",
        "lat": 65.38493412780353,
        "lon": 28.935257672503376,
        "alt_km": 683.3842622351158,
        "timestamp": "2025-12-10T21:43:21.743615+00:00",
        "meta_object_name": "SPOT 7",
        "meta_object_id": "2014-034A",
        "meta_epoch": "2025-12-10T14:50:33.567648",
        "meta_mean_motion": 14.60729902,
        "meta_eccentricity": 0.0001583,
        "meta_inclination": 98.0903,
        "meta_ra_of_asc_node": 46.7427,
        "meta_arg_of_pericenter": 87.9756,
        "meta_mean_anomaly": 272.1626,
        "meta_ephemeris_type": 0,
        "meta_classification_type": "U",
        "meta_norad_cat_id": 40053,
        "meta_element_set_no": 999,
        "meta_rev_at_epoch": 60960,
        "meta_bstar": 0.00020904995,
        "meta_mean_motion_dot": 9.74e-06,
        "meta_mean_motion_ddot": 0,
        "tle_line1": "1 40053U 14034A   25344.61844407  .00000974  00000+0  20905-3 0  9994",
        "tle_line2": "2 40053  98.0903  46.7427 0001583  87.9756 272.1626 14.60729902609609"
      },
      "geometry": {
        "type": "Point",
        "coordinates": [
          28.935257672503376,
          65.38493412780353
        ]
      }
    },
    {
      "type": "Feature",
      "properties": {
        "norad_id": 40072,
        "name": "SKYSAT-B",
        "group": "resource",
        "lat": -6.3762385189026185,
        "lon": 107.57251054271421,
        "alt_km": 606.5375189076894,
        "timestamp": "2025-12-10T21:43:21.743625+00:00",
        "meta_object_name": "SKYSAT-B",
        "meta_object_id": "2014-037D",
        "meta_epoch": "2025-12-10T14:25:45.732864",
        "meta_mean_motion": 14.87315032,
        "meta_eccentricity": 0.00059809,
        "meta_inclination": 98.3608,
        "meta_ra_of_asc_node": 288.1943,
        "meta_arg_of_pericenter": 156.6486,
        "meta_mean_anomaly": 203.5001,
        "meta_ephemeris_type": 0,
        "meta_classification_type": "U",
        "meta_norad_cat_id": 40072,
        "meta_element_set_no": 999,
        "meta_rev_at_epoch": 61792,
        "meta_bstar": 0.00035912799,
        "meta_mean_motion_dot": 3.182e-05,
        "meta_mean_motion_ddot": 0,
        "tle_line1": "1 40072U 14037D   25344.60122376  .00003182  00000+0  35913-3 0  9990",
        "tle_line2": "2 40072  98.3608 288.1943 0005980 156.6486 203.5001 14.87315032617922"
      },
      "geometry": {
        "type": "Point",
        "coordinates": [
          107.57251054271421,
          -6.3762385189026185
        ]
      }
    }
  ]
}